ONEWEB-0113             
1 48050U 21025J   23281.58178169  .00000138  00000+0  34261-3 0  9998
2 48050  87.8986 155.7598 0001866  75.2120 284.9216 13.13469062124591
ONEWEB-0112             
1 48051U 21025K   23281.56907210  .00000322  00000+0  84598-3 0  9997
2 48051  87.9045 155.7376 0001659  80.0542 280.0775 13.13473030124604
ONEWEB-0156             
1 48052U 21025L   23281.57965223  .00000251  00000+0  65340-3 0  9992
2 48052  87.8973 155.7386 0001665  78.0313 282.1003 13.13468470124581
ONEWEB-0161             
1 48053U 21025M   23281.17125422  .00000261  00000+0  68041-3 0  9990
2 48053  87.9039 155.8156 0001509  73.8886 286.2409 13.13470377124468
ONEWEB-0158             
1 48054U 21025N   23281.59235542 -.00000141  00000+0 -42072-3 0  9997
2 48054  87.8969 155.7416 0001978  78.3557 281.7794 13.13469092124642
ONEWEB-0157             
1 48055U 21025P   23281.38709321 -.00000184  00000+0 -53894-3 0  9997
2 48055  87.9046 155.7786 0001454  77.7790 282.3502 13.13471321124553
ONEWEB-0162             
1 48056U 21025Q   23281.57753752  .00000194  00000+0  49591-3 0  9994
2 48056  87.9047 155.7392 0001666  79.3430 280.7887 13.13468262124550
ONEWEB-0155             
1 48057U 21025R   23281.21781387 -.00000170  00000+0 -50046-3 0  9994
2 48057  87.9049 155.8166 0001694  74.7413 285.3904 13.13469661124649
ONEWEB-0149             
1 48058U 21025S   23281.39133102 -.00000109  00000+0 -33296-3 0  9990
2 48058  87.9046 155.7808 0001581  90.7998 269.3312 13.13471503124474
ONEWEB-0148             
1 48059U 21025T   23281.58388015  .00000121  00000+0  29549-3 0  9995
2 48059  87.9043 155.7498 0001230 104.4042 255.7224 13.13468688124629
ONEWEB-0160             
1 48060U 21025U   23281.37227519 -.00000384  00000+0 -10869-2 0  9992
2 48060  87.9044 155.7885 0002743  81.9787 278.1654 13.13466977124543
ONEWEB-0163             
1 48061U 21025V   23281.58599702 -.00000727  00000+0 -20247-2 0  9994
2 48061  87.9050 155.7374 0001412  68.5883 291.5397 13.13471597124697
ONEWEB-0159             
1 48062U 21025W   23281.57542185  .00000194  00000+0  49767-3 0  9992
2 48062  87.8973 155.7309 0001593  86.9415 273.1896 13.13472188124613
ONEWEB-0164             
1 48063U 21025X   23281.40402871  .00000224  00000+0  57878-3 0  9998
2 48063  87.9047 155.7683 0001773  71.7469 288.3853 13.13470469124579
ONEWEB-0167             
1 48064U 21025Y   23281.58705677 -.00000041  00000+0 -14710-3 0  9995
2 48064  87.9049 155.7414 0001487  74.9534 285.1759 13.13466612124580
ONEWEB-0166             
1 48065U 21025Z   23281.38074600 -.00000334  00000+0 -94930-3 0  9996
2 48065  87.9043 155.7759 0001563  82.7865 277.3442 13.13471015124637
ONEWEB-0151             
1 48066U 21025AA  23281.38286571 -.00000293  00000+0 -83682-3 0  9995
2 48066  87.9046 155.7829 0001892  69.0921 291.0410 13.13471030124573
ONEWEB-0170             
1 48067U 21025AB  23281.38922568 -.00000135  00000+0 -40517-3 0  9994
2 48067  87.9048 155.7811 0002345  67.3206 292.8171 13.13466776124538
ONEWEB-0168             
1 48068U 21025AC  23281.37439837 -.00000346  00000+0 -98175-3 0  9993
2 48068  87.8972 155.7905 0001620  79.0140 281.1172 13.13470551124549
ONEWEB-0173             
1 48069U 21025AD  23281.36804511 -.00000177  00000+0 -51881-3 0  9993
2 48069  87.8975 155.8077 0001405  59.0204 301.1063 13.13470987124785
ONEWEB-0171             
1 48070U 21025AE  23281.55425864  .00000168  00000+0  42579-3 0  9998
2 48070  87.9042 155.7628 0001732  69.0480 291.0835 13.13472892124628
ONEWEB-0172             
1 48071U 21025AF  23281.38390459 -.00000268  00000+0 -76753-3 0  9995
2 48071  87.9041 155.7652 0001624  63.8509 296.2787 13.13473080125498
ONEWEB-0174             
1 48072U 21025AG  23281.59446270 -.00000224  00000+0 -64897-3 0  9990
2 48072  87.9041 155.7386 0001587  87.1684 272.9626 13.13478351124841
ONEWEB-0175             
1 48073U 21025AH  23281.39345058  .00000061  00000+0  13278-3 0  9995
2 48073  87.9044 155.7724 0001976  65.9479 294.1857 13.13471218124475
ONEWEB-0177             
1 48074U 21025AJ  23281.40614152  .00000322  00000+0  84578-3 0  9993
2 48074  87.9046 155.7740 0001175  65.0765 295.0486 13.13469121124665
ONEWEB-0178             
1 48075U 21025AK  23281.57648939  .00000193  00000+0  49449-3 0  9996
2 48075  87.9042 155.7455 0001407  74.2050 285.9235 13.13470940124731
ONEWEB-0108             
1 48076U 21025AL  23281.38497636 -.00000309  00000+0 -87972-3 0  9996
2 48076  87.9045 155.7777 0001848  83.0340 277.0999 13.13469403124631
ONEWEB-0169             
1 48077U 21025AM  23281.56696163  .00000318  00000+0  83721-3 0  9999
2 48077  87.9049 155.7437 0001847  89.2762 270.8579 13.13470899123314
ONEWEB-0176             
1 48210U 21031A   23281.57372220  .00000126  00000+0  30586-3 0  9999
2 48210  87.8953 125.3059 0001646  82.2246 277.9071 13.14502633119229
ONEWEB-0184             
1 48211U 21031B   23281.54835457  .00000196  00000+0  49336-3 0  9993
2 48211  87.8965 125.2933 0002255  52.5505 307.5829 13.14504193119198
ONEWEB-0179             
1 48212U 21031C   23281.59274726 -.00000209  00000+0 -59837-3 0  9999
2 48212  87.8965 125.2792 0001364  83.2225 276.9060 13.14504959119244
ONEWEB-0180             
1 48213U 21031D   23281.55045495  .00000197  00000+0  49673-3 0  9996
2 48213  87.8965 125.2909 0001389  80.9623 279.1664 13.14504664119123
ONEWEB-0218             
1 48214U 21031E   23281.57160096  .00000199  00000+0  50102-3 0  9995
2 48214  87.8966 125.2884 0001878  42.0631 318.0643 13.14500071119283
ONEWEB-0209             
1 48215U 21031F   23281.56102950  .00000269  00000+0  69138-3 0  9997
2 48215  87.8958 125.3290 0001542  84.4932 275.6373 13.14501084119282
ONEWEB-0198             
1 48216U 21031G   23281.54622152  .00000130  00000+0  31577-3 0  9990
2 48216  87.8954 125.3399 0001445  63.8128 296.3150 13.14505730119396
ONEWEB-0189             
1 48217U 21031H   23281.55892451  .00000371  00000+0  96662-3 0  9996
2 48217  87.8952 125.3156 0001315  64.7258 295.4008 13.14503066119130
ONEWEB-0196             
1 48218U 21031J   23281.53777275 -.00000057  00000+0 -18932-3 0  9998
2 48218  87.8957 125.3152 0001638  75.9446 284.1866 13.14501698119139
ONEWEB-0183             
1 48219U 21031K   23281.58639993 -.00000040  00000+0 -14322-3 0  9999
2 48219  87.8958 125.3251 0001500  84.7607 275.3694 13.14503572119231
ONEWEB-0185             
1 48220U 21031L   23281.53887256  .00000411  00000+0  10740-2 0  9992
2 48220  87.8954 125.3092 0001443  86.5672 273.5623 13.14507498119154
ONEWEB-0187             
1 48221U 21031M   23281.58957298 -.00000134  00000+0 -39616-3 0  9990
2 48221  87.8958 125.3281 0001530  81.9380 278.1923 13.14504967119175
ONEWEB-0192             
1 48222U 21031N   23281.56315441  .00000423  00000+0  11066-2 0  9994
2 48222  87.8998 125.2986 0001594  75.1042 285.0264 13.14502653119086
ONEWEB-0219             
1 48223U 21031P   23281.54410784  .00000028  00000+0  39865-4 0  9999
2 48223  87.8955 125.3121 0001431  81.6397 278.4895 13.14504683119280
ONEWEB-0202             
1 48224U 21031Q   23281.52295877 -.00000172  00000+0 -49751-3 0  9998
2 48224  87.8954 125.3362 0001497  41.5941 318.5302 13.14505249119265
ONEWEB-0204             
1 48225U 21031R   23281.55694842  .00000280  00000+0  71979-3 0  9992
2 48225  87.8955 125.3420 0001894  97.9582 262.1763 13.14501508119167
ONEWEB-0205             
1 48226U 21031S   23281.53353475 -.00000083  00000+0 -25805-3 0  9995
2 48226  87.8955 125.3158 0001415  76.8359 283.2928 13.14504814119174
ONEWEB-0206             
1 48227U 21031T   23281.58216627  .00000015  00000+0  65546-5 0  9999
2 48227  87.8966 125.2922 0001381  87.9231 272.2057 13.14503919119131
ONEWEB-0182             
1 48228U 21031U   23281.57582500  .00000077  00000+0  17274-3 0  9996
2 48228  87.8962 125.3164 0001441  86.5017 273.6277 13.14500715119344
ONEWEB-0186             
1 48229U 21031V   23281.58852171 -.00000092  00000+0 -28360-3 0  9999
2 48229  87.8957 125.2788 0001524  79.6026 280.5275 13.14502790119299
ONEWEB-0181             
1 48230U 21031W   23281.56526476  .00000259  00000+0  66390-3 0  9993
2 48230  87.8957 125.3558 0001601  76.1255 284.0052 13.14502337119142
ONEWEB-0188             
1 48231U 21031X   23281.52932133 -.00000117  00000+0 -35036-3 0  9999
2 48231  87.8955 125.3620 0001495  83.8872 276.2428 13.14502130119042
ONEWEB-0220             
1 48232U 21031Y   23281.56736911  .00000248  00000+0  63380-3 0  9996
2 48232  87.8961 125.3233 0001249  83.6306 276.4966 13.14505219119317
ONEWEB-0165             
1 48233U 21031Z   23281.52085671 -.00000152  00000+0 -44323-3 0  9995
2 48233  87.8958 125.3437 0001477  78.6381 281.4915 13.14504690119266
ONEWEB-0199             
1 48234U 21031AA  23281.58005217  .00000035  00000+0  59118-4 0  9997
2 48234  87.8956 125.3039 0001481  79.5857 280.5439 13.14500492119173
ONEWEB-0203             
1 48235U 21031AB  23281.56948513  .00000209  00000+0  53006-3 0  9993
2 48235  87.8956 125.3052 0001940  75.6951 284.4394 13.14500724119183
ONEWEB-0197             
1 48236U 21031AC  23281.55666650  .00000309  00000+0  79913-3 0  9998
2 48236  87.8954 125.3166 0001662  90.4689 269.6631 13.14503623119092
ONEWEB-0194             
1 48237U 21031AD  23281.52509057 -.00000152  00000+0 -44479-3 0  9990
2 48237  87.8955 125.3119 0002049  78.6893 281.4467 13.14503054119263
ONEWEB-0193             
1 48238U 21031AE  23281.54200195  .00000041  00000+0  76806-4 0  9999
2 48238  87.8956 125.3180 0001624  73.6905 286.4403 13.14501085119212
ONEWEB-0191             
1 48239U 21031AF  23281.55257359  .00000242  00000+0  61928-3 0  9996
2 48239  87.8965 125.2975 0001738  77.6648 282.4676 13.14501105119073
ONEWEB-0195             
1 48240U 21031AG  23281.53038143 -.00000157  00000+0 -45927-3 0  9992
2 48240  87.8965 125.3026 0001349  70.3739 289.7536 13.14503619119057
